{
"type": "FeatureCollection",
"name": "ernakulam",
"crs": { "type": "name", "properties": { "name": "urn:ogc:def:crs:OGC:1.3:CRS84" } },
"features": [
{ "type": "Feature", "properties": { "DISTRICT": "Ernakulam", "ST_NM": "Kerala", "ST_CEN_CD": 32, "DT_CEN_CD": 8, "censuscode": 595, "orig_ogc_f": 173 }, "geometry": { "type": "Polygon", "coordinates": [ [ [ 76.689244599223912, 10.26720683638176 ], [ 76.687242172427318, 10.261704063987649 ], [ 76.683226645628537, 10.256786801027589 ], [ 76.680646687720838, 10.251687763130253 ], [ 76.681183240171791, 10.240268501452091 ], [ 76.679042847161369, 10.22822670422531 ], [ 76.675805600038089, 10.217395220488028 ], [ 76.67376333703227, 10.213901340372091 ], [ 76.661119551765736, 10.198742447531615 ], [ 76.65826200408236, 10.195769704668249 ], [ 76.652160120911901, 10.191431489679085 ], [ 76.6442252154378, 10.166212277505926 ], [ 76.643393802282375, 10.161453738183452 ], [ 76.649107901706557, 10.155771465415627 ], [ 76.658302887562485, 10.140763288815929 ], [ 76.661603928065063, 10.139430954704043 ], [ 76.666004999350704, 10.14176668922396 ], [ 76.669365360243873, 10.142213093313432 ], [ 76.673303827732482, 10.141280943346738 ], [ 76.676482635405094, 10.139089183409681 ], [ 76.689827167499971, 10.125784024152624 ], [ 76.699305420924929, 10.117657814898321 ], [ 76.708088344886718, 10.112114914430778 ], [ 76.715890102822257, 10.10594613432359 ], [ 76.72725390387852, 10.094541088770161 ], [ 76.742846039474458, 10.085699926074975 ], [ 76.750176139891494, 10.075859812454723 ], [ 76.754161019415889, 10.072629894305194 ], [ 76.770475234872634, 10.062008276609079 ], [ 76.779378170724101, 10.061569383866008 ], [ 76.782849338391756, 10.06017808244995 ], [ 76.788523884861107, 10.051950958003781 ], [ 76.787437154659017, 10.047595303318513 ], [ 76.794555555081956, 10.041827483180468 ], [ 76.799349237541335, 10.039914541134191 ], [ 76.80506350524557, 10.039258929982482 ], [ 76.811718677800187, 10.035214165402028 ], [ 76.817348297663628, 10.033698065056685 ], [ 76.828696743512381, 10.02572719823649 ], [ 76.84049711381428, 10.023897453017273 ], [ 76.835590575290624, 10.018870773431047 ], [ 76.833332239776411, 10.015094881295406 ], [ 76.830351149619148, 10.013789539347998 ], [ 76.816788157728652, 10.019299982043547 ], [ 76.805199417193705, 10.027096324145676 ], [ 76.794214017643142, 10.031103541721224 ], [ 76.792537692182037, 10.032831168332176 ], [ 76.784473800230472, 10.035102299156094 ], [ 76.776808965860866, 10.026247000899362 ], [ 76.766616605382325, 10.011498117989984 ], [ 76.772156656530598, 10.00024820156546 ], [ 76.771572514259759, 9.990519539732345 ], [ 76.765757822022536, 9.989247129552989 ], [ 76.76544025680144, 9.985687133074816 ], [ 76.766101805394101, 9.982006192321483 ], [ 76.748730665419416, 9.989969675030592 ], [ 76.744659036849143, 9.98925823333229 ], [ 76.732397536489401, 9.985168728203618 ], [ 76.726860520808813, 9.981425893730902 ], [ 76.718688093011167, 9.987527480903243 ], [ 76.71686471526597, 9.985303558579686 ], [ 76.710837879299007, 9.987307878159296 ], [ 76.717274969078318, 9.968524403983269 ], [ 76.718514670464842, 9.958173560613456 ], [ 76.716982709495753, 9.955197335962113 ], [ 76.7102848928469, 9.951118360319391 ], [ 76.711069782510165, 9.948009869856829 ], [ 76.705111835580169, 9.936339819646809 ], [ 76.699131179490422, 9.928635748451278 ], [ 76.695668776274729, 9.930044558522601 ], [ 76.691111551305511, 9.925313848078826 ], [ 76.691081580637473, 9.92209724381993 ], [ 76.700695568593247, 9.915293417840534 ], [ 76.700207285396175, 9.911965484670443 ], [ 76.698850094594889, 9.909851395135854 ], [ 76.695293054022471, 9.907354633449856 ], [ 76.692576306494061, 9.907721382616019 ], [ 76.685782633101397, 9.912375475999934 ], [ 76.682245149618353, 9.918666331133918 ], [ 76.680044527729081, 9.919259925699286 ], [ 76.672692887118686, 9.919323075674464 ], [ 76.667687562410791, 9.91666398725544 ], [ 76.663800816616344, 9.916639958938266 ], [ 76.659419518150955, 9.918686904277767 ], [ 76.654716088875531, 9.917864100129885 ], [ 76.650272694343272, 9.919855563155423 ], [ 76.642887401488196, 9.917273819615199 ], [ 76.638374893555735, 9.918000205671087 ], [ 76.635460221757413, 9.915785802315057 ], [ 76.633295871382316, 9.91327565187644 ], [ 76.631866549604453, 9.909322790264746 ], [ 76.632738903302382, 9.902650018086845 ], [ 76.631491799209996, 9.898638976242276 ], [ 76.632619868775777, 9.895127640301332 ], [ 76.633511470103471, 9.88512157288414 ], [ 76.638961316484753, 9.878526456875878 ], [ 76.639047494389942, 9.874849658511277 ], [ 76.637271553752427, 9.870956470706576 ], [ 76.63459146597188, 9.868510656469368 ], [ 76.634168559062502, 9.86001043623282 ], [ 76.633090438942062, 9.855654812858326 ], [ 76.631017325968983, 9.856704956564393 ], [ 76.624528765752345, 9.857621101277685 ], [ 76.613335365899459, 9.848923131490636 ], [ 76.614991092156558, 9.84609237625655 ], [ 76.618721539906929, 9.842328222508948 ], [ 76.614064368701037, 9.839897934708407 ], [ 76.610958270283135, 9.84193278456762 ], [ 76.609840375187048, 9.839530781039151 ], [ 76.604599054998545, 9.844053312939225 ], [ 76.599914469097214, 9.844610647141355 ], [ 76.596398624045491, 9.845845126057199 ], [ 76.587139816608897, 9.841324450658473 ], [ 76.583491154032927, 9.841525562561859 ], [ 76.583515222738953, 9.837218731108123 ], [ 76.582428676444039, 9.832171118655806 ], [ 76.583837329126951, 9.826816520694074 ], [ 76.581889322143908, 9.822753541966186 ], [ 76.576704593588545, 9.819519250391576 ], [ 76.571171591186399, 9.822667572181699 ], [ 76.567928569552677, 9.822638508297056 ], [ 76.561088385291924, 9.815511053813694 ], [ 76.561522364204592, 9.812002539520551 ], [ 76.559073846241148, 9.803002734576198 ], [ 76.553084356427021, 9.800695171749611 ], [ 76.548802189777618, 9.799812221016973 ], [ 76.546867649448274, 9.804940515286374 ], [ 76.54456116361888, 9.805936484788791 ], [ 76.544792850701072, 9.812538990185462 ], [ 76.543113348398649, 9.813185327926037 ], [ 76.541454782345383, 9.822103832108441 ], [ 76.53937736119525, 9.823499367173396 ], [ 76.534405340818239, 9.824284824856759 ], [ 76.523630728760025, 9.824028244023717 ], [ 76.51503138099396, 9.84977609091405 ], [ 76.510295354043251, 9.851193467177962 ], [ 76.499985945499603, 9.851389885320669 ], [ 76.488129679830905, 9.846657523583733 ], [ 76.482754939981959, 9.847789517808822 ], [ 76.475943580564376, 9.84411011593369 ], [ 76.462360700435283, 9.848064446116631 ], [ 76.455118530882501, 9.840652345203898 ], [ 76.450632904087314, 9.837354492124907 ], [ 76.445838668282931, 9.831821241771179 ], [ 76.432755625804134, 9.825314383500835 ], [ 76.423578317585594, 9.822797894898171 ], [ 76.418129835718204, 9.82215245764842 ], [ 76.414137188329477, 9.8232740682261 ], [ 76.406361222787751, 9.827987007388874 ], [ 76.396343101183788, 9.828409273362716 ], [ 76.387300582907756, 9.84278114191304 ], [ 76.380604739938491, 9.839890450885074 ], [ 76.37736289474239, 9.838491353284171 ], [ 76.373339119572222, 9.835648344818413 ], [ 76.370607369285949, 9.841126430182753 ], [ 76.370216541872324, 9.850607206714779 ], [ 76.371127691000481, 9.855773439090093 ], [ 76.370219758198701, 9.858824371044424 ], [ 76.362160247591149, 9.872903732647767 ], [ 76.355105332415889, 9.881744646379623 ], [ 76.352317982940974, 9.881420068416364 ], [ 76.340762159991243, 9.877542357637502 ], [ 76.33345828985631, 9.876447162628244 ], [ 76.308540960096977, 9.884042304047345 ], [ 76.302442798118548, 9.889947821069685 ], [ 76.29840407399189, 9.890140456978692 ], [ 76.296773601731374, 9.890218893531745 ], [ 76.293283447102112, 9.888291604019122 ], [ 76.294498189862765, 9.873575493374346 ], [ 76.298343520902179, 9.852462483452287 ], [ 76.295600520460894, 9.84972433064423 ], [ 76.290786646457008, 9.849645738430334 ], [ 76.286896118970205, 9.848467142710774 ], [ 76.284959774719098, 9.837739064055455 ], [ 76.281817827696543, 9.827535096267763 ], [ 76.283142654989078, 9.819655804927171 ], [ 76.284867038811569, 9.817457748814103 ], [ 76.288104824394409, 9.81691780073109 ], [ 76.288949908421486, 9.813062508828589 ], [ 76.291173096935708, 9.808392608491109 ], [ 76.283366887498914, 9.803337508350825 ], [ 76.282929491357734, 9.798399050358841 ], [ 76.284697440403818, 9.795571076776383 ], [ 76.28514111352257, 9.792466721716563 ], [ 76.283787894674191, 9.789545970962134 ], [ 76.280244757595057, 9.788524251153994 ], [ 76.277895380246662, 9.807246068852882 ], [ 76.271651269309402, 9.836626907378504 ], [ 76.27012995656348, 9.845070195612854 ], [ 76.26362546940716, 9.881110269307181 ], [ 76.26265321250365, 9.885879035935162 ], [ 76.258473216977052, 9.902221887319115 ], [ 76.256752265523872, 9.907609613927505 ], [ 76.256260898321926, 9.909003091074389 ], [ 76.255010040242198, 9.912351850771197 ], [ 76.254549489500022, 9.912595021110535 ], [ 76.250963892157927, 9.922386124067703 ], [ 76.250501045058371, 9.922629231671165 ], [ 76.248895409624723, 9.926309151593172 ], [ 76.248911373179439, 9.926977060649293 ], [ 76.248450764563643, 9.92722018987638 ], [ 76.248250892941471, 9.928352728509056 ], [ 76.247815156453328, 9.928594312054065 ], [ 76.247388480824483, 9.928836132969273 ], [ 76.242161896961392, 9.946428290212854 ], [ 76.241237455831808, 9.953912059941006 ], [ 76.24199401006048, 9.964085983367854 ], [ 76.242978572707088, 9.968477926456474 ], [ 76.243280291647736, 9.969274402185379 ], [ 76.232241862240983, 9.985832745258554 ], [ 76.230679187458321, 9.987124223410321 ], [ 76.229896847846462, 9.98939750816837 ], [ 76.227837585403137, 9.992837732841888 ], [ 76.225550190412932, 9.995183117108569 ], [ 76.2234224519934, 9.997221316490277 ], [ 76.221760551866609, 9.9999999966437 ], [ 76.221351071711609, 10.00159997563561 ], [ 76.220915061116742, 10.001841511687257 ], [ 76.22048128201277, 10.00208538120523 ], [ 76.218368372701377, 10.011163483464333 ], [ 76.214981148940041, 10.022374563715578 ], [ 76.213398819687498, 10.026287081002694 ], [ 76.212935623449667, 10.026527930579917 ], [ 76.212256288646188, 10.026984860606397 ], [ 76.210775269778793, 10.03040940860584 ], [ 76.21056473169817, 10.031335926094469 ], [ 76.210139897505655, 10.031577831662394 ], [ 76.209448670542997, 10.03205676217158 ], [ 76.206688363514232, 10.038624604106134 ], [ 76.20236564598919, 10.049007224795629 ], [ 76.198174315389664, 10.065419627978571 ], [ 76.197273374291711, 10.06636590421048 ], [ 76.195621552477363, 10.074535082077583 ], [ 76.194439055407813, 10.08273723736724 ], [ 76.193210913454408, 10.087466797817088 ], [ 76.191977113416513, 10.092980743307658 ], [ 76.190343005358542, 10.099400786063793 ], [ 76.190385221308318, 10.100755652741112 ], [ 76.184692665027114, 10.117691286471256 ], [ 76.182653528707803, 10.130130759365235 ], [ 76.18236717375629, 10.131335763168281 ], [ 76.181282978126731, 10.134081758282706 ], [ 76.179472284827298, 10.143199189250831 ], [ 76.175761184542793, 10.154442636851142 ], [ 76.175283524006872, 10.155028333834798 ], [ 76.175013289117047, 10.155888656752458 ], [ 76.174507825599193, 10.15624944454645 ], [ 76.173325817001469, 10.159663321701078 ], [ 76.172669987004511, 10.160143365402952 ], [ 76.172208573285573, 10.16038427440497 ], [ 76.171368960181113, 10.163354555076625 ], [ 76.170487607566969, 10.164299305786789 ], [ 76.169825641729531, 10.164754497745621 ], [ 76.168896428993122, 10.168762681148426 ], [ 76.16826357264712, 10.174996191467045 ], [ 76.168517079485355, 10.175655431706737 ], [ 76.170106130920303, 10.1792719912503 ], [ 76.168916168036162, 10.183869759570849 ], [ 76.178741781458157, 10.18847480667468 ], [ 76.181106144371327, 10.189580888225876 ], [ 76.191661852632947, 10.191680149612811 ], [ 76.192580055976251, 10.191789889338374 ], [ 76.213465127457397, 10.194271297542709 ], [ 76.212866903561036, 10.196046834544555 ], [ 76.212659514032708, 10.196682564984508 ], [ 76.214415430377343, 10.201041035935271 ], [ 76.216848636463823, 10.201379326184805 ], [ 76.219293359813889, 10.203381594811257 ], [ 76.221559112886197, 10.206645984113692 ], [ 76.228447061467321, 10.203474449120797 ], [ 76.236674969290902, 10.202308982423279 ], [ 76.240796164675075, 10.203848532852078 ], [ 76.249946373436728, 10.19969319648629 ], [ 76.253483800516435, 10.200889575473552 ], [ 76.261360327901031, 10.1998973059262 ], [ 76.264836560317619, 10.198394483270647 ], [ 76.264310215355565, 10.195988314676706 ], [ 76.261640508391267, 10.194846413356194 ], [ 76.263293798330679, 10.188300382288723 ], [ 76.269260796164232, 10.187253071572906 ], [ 76.275383636558459, 10.179091225883166 ], [ 76.276472794924217, 10.17398122654793 ], [ 76.291837035032628, 10.177212042413055 ], [ 76.297869310953033, 10.177600196650316 ], [ 76.303220841844961, 10.183438472264598 ], [ 76.30670400492734, 10.184634279044591 ], [ 76.314689731602598, 10.180483058411456 ], [ 76.313440318814685, 10.186914334788685 ], [ 76.313400965612715, 10.194314384536346 ], [ 76.311800333879148, 10.201779490013285 ], [ 76.313322613413291, 10.205332447316025 ], [ 76.330490775211388, 10.208386412452423 ], [ 76.335311248552813, 10.211528773774504 ], [ 76.337639457667521, 10.214848979365025 ], [ 76.339473975714967, 10.226549504622559 ], [ 76.340997960555399, 10.230333516529882 ], [ 76.34401779530252, 10.232505596014898 ], [ 76.372632266133593, 10.239831067321187 ], [ 76.375534190234433, 10.241600381032848 ], [ 76.3789659436476, 10.245204034994849 ], [ 76.379278315304518, 10.251401413102727 ], [ 76.38101910422597, 10.253863227700634 ], [ 76.386647830584053, 10.253618371127249 ], [ 76.390884131856907, 10.255728557483756 ], [ 76.390320684929577, 10.260264574268797 ], [ 76.391551618964499, 10.263013890013539 ], [ 76.397068557592021, 10.266672515254529 ], [ 76.400104866321797, 10.27274417145563 ], [ 76.402846389040363, 10.276294361327341 ], [ 76.405399555922173, 10.277491524422055 ], [ 76.413002678292287, 10.278618682817275 ], [ 76.413827951746555, 10.28245901650854 ], [ 76.413434494473179, 10.287280221284963 ], [ 76.416856717634928, 10.288072971772079 ], [ 76.416930619185493, 10.291457125406067 ], [ 76.415957850644219, 10.294673658739775 ], [ 76.417640735356088, 10.295644608992369 ], [ 76.432173047787899, 10.290151322393772 ], [ 76.436356796236439, 10.292261375096482 ], [ 76.441228909269384, 10.293051720612686 ], [ 76.450575871180135, 10.296008182189516 ], [ 76.461771308472606, 10.296204111955984 ], [ 76.474168453840477, 10.291689646278556 ], [ 76.494802847543554, 10.291739815929745 ], [ 76.497291498014562, 10.289322736268891 ], [ 76.500411481183292, 10.287647875781412 ], [ 76.504237420626296, 10.286719215618765 ], [ 76.518208358500218, 10.286386724679078 ], [ 76.526558705814566, 10.285386507805356 ], [ 76.541583623937697, 10.288206268748546 ], [ 76.546505658442385, 10.286811932159202 ], [ 76.55339761095118, 10.282773832060105 ], [ 76.557045865342602, 10.282415868298637 ], [ 76.563542560366329, 10.284288702068103 ], [ 76.573338028701258, 10.283165891232269 ], [ 76.567466303408864, 10.293168617933128 ], [ 76.570615340425661, 10.29654382562361 ], [ 76.579213517762327, 10.301792929441694 ], [ 76.585871222658483, 10.2986154087292 ], [ 76.590685803064986, 10.298369757600708 ], [ 76.591643939471027, 10.292341458709394 ], [ 76.593149987155257, 10.290213189125664 ], [ 76.596093774234518, 10.287448715671699 ], [ 76.604300312937639, 10.281912301707568 ], [ 76.61873157692564, 10.279739731141143 ], [ 76.622829554491716, 10.274732682209347 ], [ 76.625893315686071, 10.273805142506406 ], [ 76.633197168679771, 10.273778613871208 ], [ 76.639354699948285, 10.274617217087103 ], [ 76.643818798037699, 10.276379959574058 ], [ 76.646629524353273, 10.281075185113242 ], [ 76.658682868674333, 10.28057163895962 ], [ 76.663838543915332, 10.278719060331794 ], [ 76.670065889117936, 10.271809552485161 ], [ 76.682413350024717, 10.269754515940161 ], [ 76.689244599223912, 10.26720683638176 ] ] ] } }
]
}
