{
"type": "FeatureCollection",
"name": "railway_stations_ernakulam",
"crs": { "type": "name", "properties": { "name": "urn:ogc:def:crs:OGC:1.3:CRS84" } },
"features": [
{ "type": "Feature", "properties": { "id": "node/6036084320", "@id": "node/6036084320", "addr:city": null, "addr:district": null, "addr:postcode": null, "addr:state": null, "addr:street": null, "alt_name": null, "fixme": null, "internet_access": "no", "name": "Mattancheri", "name:en": null, "name:hi": null, "name:ml": null, "network": "IR", "network:wikidata": null, "note": null, "old_name": null, "opening_date": null, "operator": "SR", "platforms": null, "proposed": null, "public_transport": "station", "railway": "station", "ref": "MTNC", "ref:source": null, "start_date": null, "station": null, "subway": null, "tactile_paving": null, "toilets:wheelchair": null, "train": "yes", "wheelchair": null, "wikidata": "Q63422698", "wikipedia": null }, "geometry": { "type": "Point", "coordinates": [ 76.2703326, 9.9398956 ] } },
{ "type": "Feature", "properties": { "id": "node/732425300", "@id": "node/732425300", "addr:city": null, "addr:district": null, "addr:postcode": null, "addr:state": null, "addr:street": null, "alt_name": null, "fixme": null, "internet_access": "no", "name": "Cochin Harbour Terminus", "name:en": null, "name:hi": null, "name:ml": "കൊച്ചിൻ ഹാർബർ ടെർമിനസ്", "network": "IR", "network:wikidata": null, "note": null, "old_name": null, "opening_date": null, "operator": "SR", "platforms": null, "proposed": null, "public_transport": null, "railway": "station", "ref": "CHTS", "ref:source": null, "start_date": null, "station": null, "subway": null, "tactile_paving": null, "toilets:wheelchair": null, "train": null, "wheelchair": null, "wikidata": "Q5139311", "wikipedia": "en:Cochin Harbour Terminus railway station" }, "geometry": { "type": "Point", "coordinates": [ 76.2676188, 9.9602949 ] } },
{ "type": "Feature", "properties": { "id": "node/6777772107", "@id": "node/6777772107", "addr:city": null, "addr:district": null, "addr:postcode": null, "addr:state": null, "addr:street": null, "alt_name": null, "fixme": null, "internet_access": "yes", "name": "Kadavanthra", "name:en": null, "name:hi": "कडवान्त्र", "name:ml": "കടവന്ത്ര", "network": "Kochi Metro", "network:wikidata": null, "note": "Contributors are requested to not edit the \"network\" and the \"operator\" tags. (2023/11/08)", "old_name": null, "opening_date": null, "operator": "Kochi Metro Rail Limited", "platforms": null, "proposed": null, "public_transport": "station", "railway": "station", "ref": "KDV", "ref:source": "kochimetro.org", "start_date": null, "station": "subway", "subway": "yes", "tactile_paving": "yes", "toilets:wheelchair": "yes", "train": null, "wheelchair": "yes", "wikidata": "Q67154725", "wikipedia": "en:Kadavanthra metro station" }, "geometry": { "type": "Point", "coordinates": [ 76.2982044, 9.9666766 ] } },
{ "type": "Feature", "properties": { "id": "node/6777772111", "@id": "node/6777772111", "addr:city": null, "addr:district": null, "addr:postcode": null, "addr:state": null, "addr:street": null, "alt_name": null, "fixme": null, "internet_access": "yes", "name": "Ernakulam South", "name:en": null, "name:hi": "एर्नाकुलम साउथ", "name:ml": "എറണാകുളം തെക്ക്", "network": "Kochi Metro", "network:wikidata": null, "note": "Contributors are requested to not edit the \"network\" and the \"operator\" tags. (2023/11/08)", "old_name": null, "opening_date": null, "operator": "Kochi Metro Rail Limited", "platforms": null, "proposed": null, "public_transport": "station", "railway": "station", "ref": null, "ref:source": null, "start_date": null, "station": "subway", "subway": "yes", "tactile_paving": "yes", "toilets:wheelchair": "yes", "train": null, "wheelchair": "yes", "wikidata": "Q20574885", "wikipedia": "en:Ernakulam South metro station" }, "geometry": { "type": "Point", "coordinates": [ 76.2894579, 9.9686172 ] } },
{ "type": "Feature", "properties": { "id": "node/4760378949", "@id": "node/4760378949", "addr:city": null, "addr:district": null, "addr:postcode": null, "addr:state": null, "addr:street": null, "alt_name": null, "fixme": null, "internet_access": "wlan", "name": "Ernakulam Junction", "name:en": null, "name:hi": null, "name:ml": "എറണാകുളം ജംഗ്ഷൻ", "network": "IR", "network:wikidata": null, "note": null, "old_name": null, "opening_date": null, "operator": "SR", "platforms": null, "proposed": null, "public_transport": "station", "railway": "station", "ref": "ERS", "ref:source": null, "start_date": null, "station": null, "subway": null, "tactile_paving": null, "toilets:wheelchair": null, "train": null, "wheelchair": "yes", "wikidata": "Q5392599", "wikipedia": "en:Ernakulam Junction railway station" }, "geometry": { "type": "Point", "coordinates": [ 76.2909524, 9.9690003 ] } },
{ "type": "Feature", "properties": { "id": "node/5242586671", "@id": "node/5242586671", "addr:city": null, "addr:district": null, "addr:postcode": null, "addr:state": null, "addr:street": null, "alt_name": null, "fixme": null, "internet_access": "yes", "name": "Maharaja's College", "name:en": null, "name:hi": "महाराजास् कॉलज", "name:ml": "മഹാരാജാസ് കോളേജ്", "network": "Kochi Metro", "network:wikidata": null, "note": "Contributors are requested to not edit the \"network\" and the \"operator\" tags. (2023/11/08)", "old_name": null, "opening_date": null, "operator": "Kochi Metro Rail Limited", "platforms": null, "proposed": null, "public_transport": "station", "railway": "station", "ref": "MACE", "ref:source": null, "start_date": null, "station": "subway", "subway": "yes", "tactile_paving": "yes", "toilets:wheelchair": "yes", "train": null, "wheelchair": "yes", "wikidata": "Q42343250", "wikipedia": "en:Maharaja's College metro station" }, "geometry": { "type": "Point", "coordinates": [ 76.2851082, 9.9733747 ] } },
{ "type": "Feature", "properties": { "id": "node/9924628170", "@id": "node/9924628170", "addr:city": null, "addr:district": null, "addr:postcode": null, "addr:state": null, "addr:street": "Ponnurunni, Vyttila, Ernakulam, Kerala 682020, India", "alt_name": null, "fixme": null, "internet_access": null, "name": "Ernakulam D Cabin", "name:en": null, "name:hi": null, "name:ml": null, "network": "IR", "network:wikidata": null, "note": null, "old_name": null, "opening_date": null, "operator": "SR", "platforms": null, "proposed": null, "public_transport": "station", "railway": "station", "ref": "ERSD", "ref:source": null, "start_date": null, "station": null, "subway": null, "tactile_paving": null, "toilets:wheelchair": null, "train": "yes", "wheelchair": "no", "wikidata": null, "wikipedia": null }, "geometry": { "type": "Point", "coordinates": [ 76.3022282, 9.9799466 ] } },
{ "type": "Feature", "properties": { "id": "node/4903755539", "@id": "node/4903755539", "addr:city": null, "addr:district": null, "addr:postcode": null, "addr:state": null, "addr:street": null, "alt_name": null, "fixme": null, "internet_access": "yes", "name": "M. G. Road", "name:en": null, "name:hi": "एम०जी० रोड", "name:ml": "എം. ജി റോഡ്", "network": "Kochi Metro", "network:wikidata": null, "note": "Contributors are requested to not edit the \"network\" and the \"operator\" tags. (2023/11/08)", "old_name": null, "opening_date": null, "operator": "Kochi Metro Rail Limited", "platforms": null, "proposed": null, "public_transport": "station", "railway": "station", "ref": "MGRD", "ref:source": null, "start_date": null, "station": "subway", "subway": "yes", "tactile_paving": "yes", "toilets:wheelchair": "yes", "train": null, "wheelchair": "yes", "wikidata": "Q42328335", "wikipedia": "en:M. G. Road metro station" }, "geometry": { "type": "Point", "coordinates": [ 76.2824385, 9.9833224 ] } },
{ "type": "Feature", "properties": { "id": "node/7376457360", "@id": "node/7376457360", "addr:city": null, "addr:district": null, "addr:postcode": null, "addr:state": null, "addr:street": null, "alt_name": null, "fixme": null, "internet_access": null, "name": "Valarpadam Railway Station", "name:en": null, "name:hi": null, "name:ml": "വല്ലാർപാടം റെയിൽവേ സ്റ്റേഷൻ", "network": null, "network:wikidata": null, "note": null, "old_name": null, "opening_date": null, "operator": "SR", "platforms": null, "proposed": null, "public_transport": "station", "railway": "station", "ref": null, "ref:source": null, "start_date": null, "station": null, "subway": null, "tactile_paving": null, "toilets:wheelchair": null, "train": "yes", "wheelchair": null, "wikidata": null, "wikipedia": null }, "geometry": { "type": "Point", "coordinates": [ 76.2571486, 9.9876004 ] } },
{ "type": "Feature", "properties": { "id": "node/5242586672", "@id": "node/5242586672", "addr:city": null, "addr:district": null, "addr:postcode": null, "addr:state": null, "addr:street": null, "alt_name": null, "fixme": null, "internet_access": "yes", "name": "Town Hall", "name:en": null, "name:hi": null, "name:ml": "ടൗണ്‍ ഹാൾ", "network": "Kochi Metro", "network:wikidata": null, "note": "Contributors are requested to not edit the \"network\" and the \"operator\" tags. (2023/11/08)", "old_name": "Lissie", "opening_date": null, "operator": "Kochi Metro Rail Limited", "platforms": null, "proposed": null, "public_transport": "station", "railway": "station", "ref": "LSSE", "ref:source": null, "start_date": null, "station": "subway", "subway": "yes", "tactile_paving": "yes", "toilets:wheelchair": "yes", "train": null, "wheelchair": "yes", "wikidata": "Q42308850", "wikipedia": "en:Lissie metro station" }, "geometry": { "type": "Point", "coordinates": [ 76.2884381, 9.9912053 ] } },
{ "type": "Feature", "properties": { "id": "node/3290949290", "@id": "node/3290949290", "addr:city": null, "addr:district": null, "addr:postcode": null, "addr:state": null, "addr:street": null, "alt_name": null, "fixme": null, "internet_access": "no", "name": "Kumbalam", "name:en": null, "name:hi": null, "name:ml": "കുമ്പളം", "network": "IR", "network:wikidata": null, "note": null, "old_name": null, "opening_date": null, "operator": "SR", "platforms": null, "proposed": null, "public_transport": "station", "railway": "station", "ref": "KUMM", "ref:source": null, "start_date": null, "station": null, "subway": null, "tactile_paving": null, "toilets:wheelchair": null, "train": null, "wheelchair": null, "wikidata": "Q63354887", "wikipedia": null }, "geometry": { "type": "Point", "coordinates": [ 76.3113965, 9.9064186 ] } },
{ "type": "Feature", "properties": { "id": "node/4824919682", "@id": "node/4824919682", "addr:city": null, "addr:district": null, "addr:postcode": null, "addr:state": null, "addr:street": null, "alt_name": null, "fixme": null, "internet_access": "no", "name": "Tirunettur", "name:en": null, "name:hi": null, "name:ml": "തിരുനെട്ടുർ", "network": "IR", "network:wikidata": null, "note": null, "old_name": null, "opening_date": null, "operator": "SR", "platforms": null, "proposed": null, "public_transport": null, "railway": "station", "ref": "TNU", "ref:source": null, "start_date": null, "station": null, "subway": null, "tactile_paving": null, "toilets:wheelchair": null, "train": null, "wheelchair": null, "wikidata": "Q60182470", "wikipedia": null }, "geometry": { "type": "Point", "coordinates": [ 76.3085098, 9.9342399 ] } },
{ "type": "Feature", "properties": { "id": "node/7883924233", "@id": "node/7883924233", "addr:city": null, "addr:district": null, "addr:postcode": null, "addr:state": null, "addr:street": null, "alt_name": null, "fixme": null, "internet_access": "yes", "name": "Pettah", "name:en": null, "name:hi": "पेट्टा", "name:ml": "പേട്ട", "network": "Kochi Metro", "network:wikidata": null, "note": "Contributors are requested to not edit the \"network\" and the \"operator\" tags. (2023/11/08)", "old_name": null, "opening_date": null, "operator": "Kochi Metro Rail Limited", "platforms": null, "proposed": null, "public_transport": "station", "railway": "station", "ref": null, "ref:source": null, "start_date": null, "station": "subway", "subway": "yes", "tactile_paving": "yes", "toilets:wheelchair": "yes", "train": null, "wheelchair": "yes", "wikidata": "Q67172500", "wikipedia": "en:Pettah metro station" }, "geometry": { "type": "Point", "coordinates": [ 76.3301852, 9.9524963 ] } },
{ "type": "Feature", "properties": { "id": "node/7944685628", "@id": "node/7944685628", "addr:city": null, "addr:district": null, "addr:postcode": null, "addr:state": null, "addr:street": null, "alt_name": null, "fixme": null, "internet_access": "yes", "name": "Vadakkekotta", "name:en": null, "name:hi": null, "name:ml": "വടക്കേക്കോട്ട", "network": "Kochi Metro", "network:wikidata": null, "note": "Contributors are requested to not edit the \"network\" and the \"operator\" tags. (2023/11/08)", "old_name": null, "opening_date": null, "operator": "Kochi Metro Rail Limited", "platforms": null, "proposed": null, "public_transport": "station", "railway": "station", "ref": null, "ref:source": null, "start_date": null, "station": "subway", "subway": "yes", "tactile_paving": "yes", "toilets:wheelchair": "yes", "train": null, "wheelchair": "yes", "wikidata": "Q113997246", "wikipedia": "en:Vadakkekotta metro station" }, "geometry": { "type": "Point", "coordinates": [ 76.339488, 9.9528098 ] } },
{ "type": "Feature", "properties": { "id": "node/6777772110", "@id": "node/6777772110", "addr:city": null, "addr:district": null, "addr:postcode": null, "addr:state": null, "addr:street": null, "alt_name": null, "fixme": "Name updated? incorrect? Thaikoodam on Wiki, Thykoodam on OSM", "internet_access": "yes", "name": "Thykoodam", "name:en": null, "name:hi": "थाईकूडम", "name:ml": "തൈക്കൂടം", "network": "Kochi Metro", "network:wikidata": "Q3522910", "note": "Contributors are requested to not edit the \"network\" and the \"operator\" tags. (2023/11/08)", "old_name": null, "opening_date": null, "operator": "Kochi Metro Rail Limited", "platforms": null, "proposed": null, "public_transport": "station", "railway": "station", "ref": "TKD", "ref:source": "kochimetro.org", "start_date": null, "station": "subway", "subway": "yes", "tactile_paving": "yes", "toilets:wheelchair": "yes", "train": null, "wheelchair": "yes", "wikidata": "Q67171027", "wikipedia": "en:Thaikoodam metro station" }, "geometry": { "type": "Point", "coordinates": [ 76.3237287, 9.9601104 ] } },
{ "type": "Feature", "properties": { "id": "node/6777772108", "@id": "node/6777772108", "addr:city": null, "addr:district": null, "addr:postcode": null, "addr:state": null, "addr:street": null, "alt_name": null, "fixme": "Name updated? incorrect? Ernakulam South on Wiki, Ernakulam on OSM", "internet_access": "yes", "name": "Elamkulam", "name:en": null, "name:hi": "एलमकुलम", "name:ml": "എളംകുളം", "network": "Kochi Metro", "network:wikidata": null, "note": "Contributors are requested to not edit the \"network\" and the \"operator\" tags. (2023/11/08)", "old_name": null, "opening_date": null, "operator": "Kochi Metro Rail Limited", "platforms": null, "proposed": null, "public_transport": "station", "railway": "station", "ref": "ERS", "ref:source": null, "start_date": null, "station": "subway", "subway": "yes", "tactile_paving": "yes", "toilets:wheelchair": "yes", "train": null, "wheelchair": "yes", "wikidata": "Q67170983", "wikipedia": "en:Elamkulam metro station" }, "geometry": { "type": "Point", "coordinates": [ 76.3084361, 9.9672669 ] } },
{ "type": "Feature", "properties": { "id": "node/4903755248", "@id": "node/4903755248", "addr:city": null, "addr:district": null, "addr:postcode": null, "addr:state": null, "addr:street": null, "alt_name": null, "fixme": null, "internet_access": "yes", "name": "Palarivattom", "name:en": null, "name:hi": "पालारिवट्टम", "name:ml": "പാലാരിവട്ടം", "network": "Kochi Metro", "network:wikidata": null, "note": "Contributors are requested to not edit the \"network\" and the \"operator\" tags. (2023/11/08)", "old_name": null, "opening_date": null, "operator": "Kochi Metro Rail Limited", "platforms": null, "proposed": null, "public_transport": "station", "railway": "station", "ref": "PARV", "ref:source": null, "start_date": null, "station": "subway", "subway": "yes", "tactile_paving": "yes", "toilets:wheelchair": "yes", "train": null, "wheelchair": "yes", "wikidata": "Q38697682", "wikipedia": "en:Palarivattom metro station" }, "geometry": { "type": "Point", "coordinates": [ 76.3049281, 10.00633 ] } },
{ "type": "Feature", "properties": { "id": "node/4903755243", "@id": "node/4903755243", "addr:city": null, "addr:district": null, "addr:postcode": null, "addr:state": null, "addr:street": null, "alt_name": null, "fixme": null, "internet_access": "yes", "name": "Edappally", "name:en": null, "name:hi": "इडप्पल्ली", "name:ml": "ഇടപ്പള്ളി", "network": "Kochi Metro", "network:wikidata": null, "note": "Contributors are requested to not edit the \"network\" and the \"operator\" tags. (2023/11/08)", "old_name": null, "opening_date": null, "operator": "Kochi Metro Rail Limited", "platforms": null, "proposed": null, "public_transport": "station", "railway": "station", "ref": "EDAP", "ref:source": null, "start_date": null, "station": "subway", "subway": "yes", "tactile_paving": "yes", "toilets:wheelchair": "yes", "train": null, "wheelchair": "yes", "wikidata": "Q38582577", "wikipedia": "en:Edapally metro station" }, "geometry": { "type": "Point", "coordinates": [ 76.3079848, 10.025487 ] } },
{ "type": "Feature", "properties": { "id": "node/4903755249", "@id": "node/4903755249", "addr:city": null, "addr:district": null, "addr:postcode": null, "addr:state": null, "addr:street": null, "alt_name": null, "fixme": null, "internet_access": "yes", "name": "Pathadipalam", "name:en": null, "name:hi": "पत्तडिप्पालम", "name:ml": "പത്തടിപ്പാലം", "network": "Kochi Metro", "network:wikidata": null, "note": "Contributors are requested to not edit the \"network\" and the \"operator\" tags. (2023/11/08)", "old_name": null, "opening_date": null, "operator": "Kochi Metro Rail Limited", "platforms": null, "proposed": null, "public_transport": "station", "railway": "station", "ref": "PDPM", "ref:source": null, "start_date": null, "station": "subway", "subway": "yes", "tactile_paving": "yes", "toilets:wheelchair": "yes", "train": null, "wheelchair": "yes", "wikidata": "Q38566574", "wikipedia": "en:Pathadipalam metro station" }, "geometry": { "type": "Point", "coordinates": [ 76.314485, 10.0359805 ] } },
{ "type": "Feature", "properties": { "id": "node/4903755241", "@id": "node/4903755241", "addr:city": null, "addr:district": null, "addr:postcode": null, "addr:state": null, "addr:street": null, "alt_name": null, "fixme": null, "internet_access": "yes", "name": "Cochin University", "name:en": null, "name:hi": "कोच्चिन यूनिवर्सिटी", "name:ml": "കൊച്ചിൻ യൂണിവേഴ്സിറ്റി", "network": "Kochi Metro", "network:wikidata": null, "note": "Contributors are requested to not edit the \"network\" and the \"operator\" tags. (2023/11/08)", "old_name": null, "opening_date": null, "operator": "Kochi Metro Rail Limited", "platforms": null, "proposed": null, "public_transport": "station", "railway": "station", "ref": "CCUV", "ref:source": null, "start_date": null, "station": "subway", "subway": "yes", "tactile_paving": "yes", "toilets:wheelchair": "yes", "train": null, "wheelchair": "yes", "wikidata": "Q38499541", "wikipedia": "en:Cochin University metro station" }, "geometry": { "type": "Point", "coordinates": [ 76.3183086, 10.0466793 ] } },
{ "type": "Feature", "properties": { "id": "node/4825232030", "@id": "node/4825232030", "addr:city": null, "addr:district": null, "addr:postcode": null, "addr:state": null, "addr:street": null, "alt_name": null, "fixme": null, "internet_access": "no", "name": "Kanjiramattam", "name:en": "Kanjiramattam", "name:hi": null, "name:ml": "കാഞ്ഞിരമറ്റം", "network": "IR", "network:wikidata": null, "note": null, "old_name": null, "opening_date": null, "operator": "SR", "platforms": null, "proposed": null, "public_transport": "station", "railway": "station", "ref": "KPTM", "ref:source": null, "start_date": null, "station": null, "subway": null, "tactile_paving": null, "toilets:wheelchair": null, "train": "yes", "wheelchair": null, "wikidata": "Q63370117", "wikipedia": null }, "geometry": { "type": "Point", "coordinates": [ 76.4123043, 9.8619389 ] } },
{ "type": "Feature", "properties": { "id": "node/5253929167", "@id": "node/5253929167", "addr:city": null, "addr:district": null, "addr:postcode": null, "addr:state": null, "addr:street": null, "alt_name": null, "fixme": null, "internet_access": "no", "name": "Mulanturutti", "name:en": null, "name:hi": null, "name:ml": "മുളന്തുരുത്തി", "network": "IR", "network:wikidata": null, "note": null, "old_name": null, "opening_date": null, "operator": "SR", "platforms": null, "proposed": null, "public_transport": "station", "railway": "station", "ref": "MNTT", "ref:source": null, "start_date": null, "station": null, "subway": null, "tactile_paving": null, "toilets:wheelchair": null, "train": "yes", "wheelchair": null, "wikidata": "Q63370115", "wikipedia": null }, "geometry": { "type": "Point", "coordinates": [ 76.3906682, 9.8977739 ] } },
{ "type": "Feature", "properties": { "id": "node/4825232028", "@id": "node/4825232028", "addr:city": "Kureekkad", "addr:district": null, "addr:postcode": "682305", "addr:state": null, "addr:street": null, "alt_name": null, "fixme": null, "internet_access": "no", "name": "Chottanikkara Road", "name:en": null, "name:hi": null, "name:ml": "ചോറ്റാനിക്കര റോഡ്", "network": "IR", "network:wikidata": null, "note": null, "old_name": null, "opening_date": null, "operator": "SR", "platforms": null, "proposed": null, "public_transport": "station", "railway": "station", "ref": "KFE", "ref:source": null, "start_date": null, "station": null, "subway": null, "tactile_paving": null, "toilets:wheelchair": null, "train": "yes", "wheelchair": null, "wikidata": "Q20717384", "wikipedia": null }, "geometry": { "type": "Point", "coordinates": [ 76.3759783, 9.9244744 ] } },
{ "type": "Feature", "properties": { "id": "node/1190898883", "@id": "node/1190898883", "addr:city": null, "addr:district": null, "addr:postcode": null, "addr:state": null, "addr:street": null, "alt_name": null, "fixme": null, "internet_access": "no", "name": "Tripunittura", "name:en": null, "name:hi": null, "name:ml": "തൃപ്പൂണിത്തുറ", "network": "IR", "network:wikidata": null, "note": null, "old_name": null, "opening_date": null, "operator": "SR", "platforms": "2", "proposed": null, "public_transport": "station", "railway": "station", "ref": "TRTR", "ref:source": null, "start_date": null, "station": null, "subway": null, "tactile_paving": null, "toilets:wheelchair": null, "train": null, "wheelchair": null, "wikidata": "Q18394844", "wikipedia": "en:Tripunithura railway station" }, "geometry": { "type": "Point", "coordinates": [ 76.3526309, 9.9497664 ] } },
{ "type": "Feature", "properties": { "id": "node/11699277186", "@id": "node/11699277186", "addr:city": null, "addr:district": null, "addr:postcode": null, "addr:state": null, "addr:street": null, "alt_name": null, "fixme": null, "internet_access": "yes", "name": "Thrippunithura Terminal", "name:en": null, "name:hi": null, "name:ml": "തൃപ്പൂണിത്തുറ ടെർമിനൽ", "network": "Kochi Metro", "network:wikidata": null, "note": "Contributors are requested to not edit the \"network\" and the \"operator\" tags. (2023/11/08)", "old_name": null, "opening_date": null, "operator": "Kochi Metro Rail Limited", "platforms": null, "proposed": null, "public_transport": "station", "railway": "station", "ref": null, "ref:source": null, "start_date": "2024-03-06T00:00:00", "station": "subway", "subway": "yes", "tactile_paving": "yes", "toilets:wheelchair": "yes", "train": null, "wheelchair": "yes", "wikidata": "Q124759251", "wikipedia": "en:Thrippunithura Terminal metro station" }, "geometry": { "type": "Point", "coordinates": [ 76.3517236, 9.9505728 ] } },
{ "type": "Feature", "properties": { "id": "node/7944686562", "@id": "node/7944686562", "addr:city": null, "addr:district": null, "addr:postcode": null, "addr:state": null, "addr:street": null, "alt_name": null, "fixme": null, "internet_access": "yes", "name": "SN Junction", "name:en": null, "name:hi": null, "name:ml": "എസ്എൻ ജംഗ്ഷൻ", "network": "Kochi Metro", "network:wikidata": null, "note": "Contributors are requested to not edit the \"network\" and the \"operator\" tags. (2023/11/08)", "old_name": null, "opening_date": null, "operator": "Kochi Metro Rail Limited", "platforms": null, "proposed": null, "public_transport": "station", "railway": "station", "ref": null, "ref:source": null, "start_date": null, "station": "subway", "subway": "yes", "tactile_paving": "yes", "toilets:wheelchair": "yes", "train": null, "wheelchair": "yes", "wikidata": "Q113997249", "wikipedia": "en:SN Junction metro station" }, "geometry": { "type": "Point", "coordinates": [ 76.3460351, 9.9546771 ] } },
{ "type": "Feature", "properties": { "id": "node/7944686345", "@id": "node/7944686345", "addr:city": null, "addr:district": null, "addr:postcode": null, "addr:state": null, "addr:street": null, "alt_name": null, "fixme": null, "internet_access": null, "name": "InfoPark I Station", "name:en": null, "name:hi": null, "name:ml": null, "network": "Kochi Metro Pink Line", "network:wikidata": null, "note": null, "old_name": null, "opening_date": "2026-12", "operator": null, "platforms": null, "proposed": "station", "public_transport": "station", "railway": "station", "ref": null, "ref:source": null, "start_date": null, "station": "subway", "subway": "yes", "tactile_paving": null, "toilets:wheelchair": null, "train": null, "wheelchair": null, "wikidata": null, "wikipedia": null }, "geometry": { "type": "Point", "coordinates": [ 76.362724, 10.0083511 ] } },
{ "type": "Feature", "properties": { "id": "node/4903755250", "@id": "node/4903755250", "addr:city": null, "addr:district": null, "addr:postcode": null, "addr:state": null, "addr:street": null, "alt_name": null, "fixme": null, "internet_access": "yes", "name": "Pulinchodu", "name:en": null, "name:hi": null, "name:ml": "പു‍ളിഞ്ചോട്", "network": "Kochi Metro", "network:wikidata": null, "note": "Contributors are requested to not edit the \"network\" and the \"operator\" tags. (2023/11/08)", "old_name": null, "opening_date": null, "operator": "Kochi Metro Rail Limited", "platforms": null, "proposed": null, "public_transport": "station", "railway": "station", "ref": "PNCU", "ref:source": null, "start_date": null, "station": "subway", "subway": "yes", "tactile_paving": "yes", "toilets:wheelchair": "yes", "train": null, "wheelchair": "yes", "wikidata": "Q38476797", "wikipedia": "en:Pulinchodu metro station" }, "geometry": { "type": "Point", "coordinates": [ 76.3467836, 10.0950475 ] } },
{ "type": "Feature", "properties": { "id": "node/4753927424", "@id": "node/4753927424", "addr:city": null, "addr:district": null, "addr:postcode": null, "addr:state": null, "addr:street": null, "alt_name": null, "fixme": null, "internet_access": "wlan", "name": "Aluva", "name:en": null, "name:hi": null, "name:ml": "ആലുവാ", "network": "IR", "network:wikidata": null, "note": null, "old_name": "Alwaye", "opening_date": null, "operator": "SR", "platforms": null, "proposed": null, "public_transport": "station", "railway": "station", "ref": "AWY", "ref:source": null, "start_date": null, "station": null, "subway": null, "tactile_paving": null, "toilets:wheelchair": null, "train": null, "wheelchair": null, "wikidata": "Q4737588", "wikipedia": "en:Aluva railway station" }, "geometry": { "type": "Point", "coordinates": [ 76.3566989, 10.1082525 ] } },
{ "type": "Feature", "properties": { "id": "node/4903755238", "@id": "node/4903755238", "addr:city": null, "addr:district": null, "addr:postcode": null, "addr:state": null, "addr:street": null, "alt_name": null, "fixme": null, "internet_access": "yes", "name": "Aluva", "name:en": null, "name:hi": "आलुवा", "name:ml": "ആലുവാ", "network": "Kochi Metro", "network:wikidata": null, "note": "Contributors are requested to not edit the \"network\" and the \"operator\" tags. (2023/11/08)", "old_name": null, "opening_date": null, "operator": "Kochi Metro Rail Limited", "platforms": null, "proposed": null, "public_transport": "station", "railway": "station", "ref": "ALVA", "ref:source": null, "start_date": null, "station": "subway", "subway": "yes", "tactile_paving": "yes", "toilets:wheelchair": "yes", "train": null, "wheelchair": "yes", "wikidata": "Q38476609", "wikipedia": "en:Aluva metro station" }, "geometry": { "type": "Point", "coordinates": [ 76.3495159, 10.1100952 ] } },
{ "type": "Feature", "properties": { "id": "node/4760378948", "@id": "node/4760378948", "addr:city": null, "addr:district": "Ernakulam", "addr:postcode": null, "addr:state": "KL", "addr:street": "Xavier Arakkal Road", "alt_name": "Ernakulam North", "fixme": null, "internet_access": "wlan", "name": "Ernakulam Town", "name:en": null, "name:hi": "एर्नाकुलम टाउन", "name:ml": "എറണാകുളം ടൗൺ", "network": "IR", "network:wikidata": null, "note": null, "old_name": null, "opening_date": null, "operator": "SR", "platforms": null, "proposed": null, "public_transport": "station", "railway": "station", "ref": "ERN", "ref:source": null, "start_date": null, "station": null, "subway": null, "tactile_paving": null, "toilets:wheelchair": null, "train": "yes", "wheelchair": "limited", "wikidata": "Q5392597", "wikipedia": "en:Ernakulam Town railway station" }, "geometry": { "type": "Point", "coordinates": [ 76.2863559, 9.9916561 ] } },
{ "type": "Feature", "properties": { "id": "node/4903755246", "@id": "node/4903755246", "addr:city": null, "addr:district": null, "addr:postcode": null, "addr:state": null, "addr:street": null, "alt_name": null, "fixme": null, "internet_access": "yes", "name": "Kaloor", "name:en": null, "name:hi": "कलूर", "name:ml": "കലൂർ", "network": "Kochi Metro", "network:wikidata": null, "note": "Contributors are requested to not edit the \"network\" and the \"operator\" tags. (2023/11/08)", "old_name": null, "opening_date": null, "operator": "Kochi Metro Rail Limited", "platforms": null, "proposed": null, "public_transport": "station", "railway": "station", "ref": "KALR", "ref:source": null, "start_date": null, "station": "subway", "subway": "yes", "tactile_paving": "yes", "toilets:wheelchair": "yes", "train": null, "wheelchair": "yes", "wikidata": "Q42308815", "wikipedia": "en:Kaloor metro station" }, "geometry": { "type": "Point", "coordinates": [ 76.2916664, 9.9942991 ] } },
{ "type": "Feature", "properties": { "id": "node/4903755244", "@id": "node/4903755244", "addr:city": null, "addr:district": null, "addr:postcode": null, "addr:state": null, "addr:street": null, "alt_name": null, "fixme": null, "internet_access": "yes", "name": "JLN Stadium", "name:en": null, "name:hi": "जे०एल०एन० स्टेडियम", "name:ml": "ജെ. എൽ. എൻ സ്റ്റേഡിയം", "network": "Kochi Metro", "network:wikidata": null, "note": "Contributors are requested to not edit the \"network\" and the \"operator\" tags. (2023/11/08)", "old_name": null, "opening_date": null, "operator": "Kochi Metro Rail Limited", "platforms": null, "proposed": null, "public_transport": "station", "railway": "station", "ref": "JLSD", "ref:source": null, "start_date": null, "station": "subway", "subway": "yes", "tactile_paving": "yes", "toilets:wheelchair": "yes", "train": null, "wheelchair": "yes", "wikidata": "Q42306467", "wikipedia": "en:J. L. N. Stadium metro station" }, "geometry": { "type": "Point", "coordinates": [ 76.2990841, 10.0002723 ] } },
{ "type": "Feature", "properties": { "id": "node/4903755240", "@id": "node/4903755240", "addr:city": null, "addr:district": null, "addr:postcode": null, "addr:state": null, "addr:street": null, "alt_name": null, "fixme": null, "internet_access": "yes", "name": "Changampuzha Park", "name:en": null, "name:hi": "चंगमपुष़ा पार्क", "name:ml": "ചങ്ങമ്പുഴ പാർക്ക്", "network": "Kochi Metro", "network:wikidata": null, "note": "Contributors are requested to not edit the \"network\" and the \"operator\" tags. (2023/11/08)", "old_name": null, "opening_date": null, "operator": "Kochi Metro Rail Limited", "platforms": null, "proposed": null, "public_transport": "station", "railway": "station", "ref": "CGPP", "ref:source": null, "start_date": null, "station": "subway", "subway": "yes", "tactile_paving": "yes", "toilets:wheelchair": "yes", "train": null, "wheelchair": "yes", "wikidata": "Q38584315", "wikipedia": "en:Changampuzha Park metro station" }, "geometry": { "type": "Point", "coordinates": [ 76.3024538, 10.0151019 ] } },
{ "type": "Feature", "properties": { "id": "node/4760378947", "@id": "node/4760378947", "addr:city": null, "addr:district": null, "addr:postcode": null, "addr:state": null, "addr:street": null, "alt_name": "Idappilly", "fixme": null, "internet_access": "no", "name": "Idappalli", "name:en": null, "name:hi": null, "name:ml": "ഇടപ്പള്ളി", "network": "IR", "network:wikidata": null, "note": null, "old_name": null, "opening_date": null, "operator": "SR", "platforms": null, "proposed": null, "public_transport": null, "railway": "station", "ref": "IPL", "ref:source": null, "start_date": null, "station": null, "subway": null, "tactile_paving": null, "toilets:wheelchair": null, "train": null, "wheelchair": null, "wikidata": "Q5335703", "wikipedia": "en:Edappally railway station" }, "geometry": { "type": "Point", "coordinates": [ 76.298762, 10.0345332 ] } },
{ "type": "Feature", "properties": { "id": "node/4903755245", "@id": "node/4903755245", "addr:city": null, "addr:district": null, "addr:postcode": null, "addr:state": null, "addr:street": null, "alt_name": null, "fixme": null, "internet_access": "yes", "name": "Kalamassery Town", "name:en": null, "name:hi": "कलमशेरी टउन", "name:ml": "കളമശ്ശേരി", "network": "Kochi Metro", "network:wikidata": null, "note": "Contributors are requested to not edit the \"network\" and the \"operator\" tags. (2023/11/08)", "old_name": null, "opening_date": null, "operator": "Kochi Metro Rail Limited", "platforms": null, "proposed": null, "public_transport": "station", "railway": "station", "ref": "KLMT", "ref:source": null, "start_date": null, "station": "subway", "subway": "yes", "tactile_paving": "yes", "toilets:wheelchair": "yes", "train": null, "wheelchair": "yes", "wikidata": "Q38478898", "wikipedia": "en:Kalamassery metro station" }, "geometry": { "type": "Point", "coordinates": [ 76.3221673, 10.0585393 ] } },
{ "type": "Feature", "properties": { "id": "node/4760503121", "@id": "node/4760503121", "addr:city": null, "addr:district": null, "addr:postcode": null, "addr:state": null, "addr:street": null, "alt_name": null, "fixme": null, "internet_access": "no", "name": "Kalamassery", "name:en": null, "name:hi": "कलमश्शेरि", "name:ml": "കളമശ്ശേരി", "network": "IR", "network:wikidata": null, "note": null, "old_name": null, "opening_date": null, "operator": "SR", "platforms": null, "proposed": null, "public_transport": "station", "railway": "station", "ref": "KLMR", "ref:source": null, "start_date": null, "station": null, "subway": null, "tactile_paving": null, "toilets:wheelchair": null, "train": null, "wheelchair": null, "wikidata": "Q63354882", "wikipedia": null }, "geometry": { "type": "Point", "coordinates": [ 76.3272102, 10.0623617 ] } },
{ "type": "Feature", "properties": { "id": "node/4903755247", "@id": "node/4903755247", "addr:city": null, "addr:district": null, "addr:postcode": null, "addr:state": null, "addr:street": null, "alt_name": null, "fixme": null, "internet_access": "yes", "name": "Muttom", "name:en": null, "name:hi": "मुट्टम", "name:ml": "മുട്ടം", "network": "Kochi Metro", "network:wikidata": null, "note": "Contributors are requested to not edit the \"network\" and the \"operator\" tags. (2023/11/08)", "old_name": null, "opening_date": null, "operator": "Kochi Metro Rail Limited", "platforms": null, "proposed": null, "public_transport": "station", "railway": "station", "ref": "MUTT", "ref:source": null, "start_date": null, "station": "subway", "subway": "yes", "tactile_paving": "yes", "toilets:wheelchair": "yes", "train": null, "wheelchair": "yes", "wikidata": "Q38477696", "wikipedia": "en:Muttom metro station" }, "geometry": { "type": "Point", "coordinates": [ 76.3337157, 10.0727253 ] } },
{ "type": "Feature", "properties": { "id": "node/4903755239", "@id": "node/4903755239", "addr:city": null, "addr:district": null, "addr:postcode": null, "addr:state": null, "addr:street": null, "alt_name": null, "fixme": null, "internet_access": "yes", "name": "Ambattukavu", "name:en": null, "name:hi": "अम्बाटुकाव्", "name:ml": "അമ്പാട്ട്കാവ്", "network": "Kochi Metro", "network:wikidata": null, "note": "Contributors are requested to not edit the \"network\" and the \"operator\" tags. (2023/11/08)", "old_name": null, "opening_date": null, "operator": "Kochi Metro Rail Limited", "platforms": null, "proposed": null, "public_transport": "station", "railway": "station", "ref": "AATK", "ref:source": null, "start_date": null, "station": "subway", "subway": "yes", "tactile_paving": "yes", "toilets:wheelchair": "yes", "train": null, "wheelchair": "yes", "wikidata": "Q38379892", "wikipedia": "en:Ambattukavu metro station" }, "geometry": { "type": "Point", "coordinates": [ 76.3387004, 10.0794208 ] } },
{ "type": "Feature", "properties": { "id": "node/4903755242", "@id": "node/4903755242", "addr:city": null, "addr:district": null, "addr:postcode": null, "addr:state": null, "addr:street": null, "alt_name": null, "fixme": null, "internet_access": "yes", "name": "Companypady", "name:en": null, "name:hi": null, "name:ml": "കമ്പനിപ്പടി", "network": "Kochi Metro", "network:wikidata": null, "note": "Contributors are requested to not edit the \"network\" and the \"operator\" tags. (2023/11/08)", "old_name": null, "opening_date": null, "operator": "Kochi Metro Rail Limited", "platforms": null, "proposed": null, "public_transport": "station", "railway": "station", "ref": "CPPY", "ref:source": null, "start_date": null, "station": "subway", "subway": "yes", "tactile_paving": "yes", "toilets:wheelchair": "yes", "train": null, "wheelchair": "yes", "wikidata": "Q38389562", "wikipedia": "en:Companypady metro station" }, "geometry": { "type": "Point", "coordinates": [ 76.3425681, 10.0873039 ] } },
{ "type": "Feature", "properties": { "id": "node/4825023202", "@id": "node/4825023202", "addr:city": null, "addr:district": null, "addr:postcode": null, "addr:state": null, "addr:street": null, "alt_name": null, "fixme": null, "internet_access": "no", "name": "Chovvara", "name:en": null, "name:hi": null, "name:ml": "ചൊവ്വര", "network": "IR", "network:wikidata": null, "note": null, "old_name": null, "opening_date": null, "operator": "SR", "platforms": null, "proposed": null, "public_transport": "station", "railway": "station", "ref": "CWR", "ref:source": null, "start_date": null, "station": null, "subway": null, "tactile_paving": null, "toilets:wheelchair": null, "train": null, "wheelchair": null, "wikidata": "Q24952180", "wikipedia": null }, "geometry": { "type": "Point", "coordinates": [ 76.3722718, 10.1329777 ] } },
{ "type": "Feature", "properties": { "id": "node/10255800222", "@id": "node/10255800222", "addr:city": null, "addr:district": null, "addr:postcode": null, "addr:state": null, "addr:street": null, "alt_name": null, "fixme": null, "internet_access": null, "name": "Kaladi", "name:en": null, "name:hi": null, "name:ml": null, "network": "IR", "network:wikidata": null, "note": null, "old_name": null, "opening_date": null, "operator": "SR", "platforms": null, "proposed": null, "public_transport": null, "railway": "station", "ref": "KLADI", "ref:source": null, "start_date": null, "station": null, "subway": null, "tactile_paving": null, "toilets:wheelchair": null, "train": null, "wheelchair": null, "wikidata": null, "wikipedia": null }, "geometry": { "type": "Point", "coordinates": [ 76.4275746, 10.1653287 ] } },
{ "type": "Feature", "properties": { "id": "node/4760378946", "@id": "node/4760378946", "addr:city": null, "addr:district": null, "addr:postcode": null, "addr:state": null, "addr:street": null, "alt_name": null, "fixme": null, "internet_access": "no", "name": "Angamali (Kaladi)", "name:en": null, "name:hi": null, "name:ml": "അങ്കമാലി", "network": "IR", "network:wikidata": null, "note": null, "old_name": null, "opening_date": null, "operator": "SR", "platforms": null, "proposed": null, "public_transport": "station", "railway": "station", "ref": "AFK", "ref:source": null, "start_date": null, "station": null, "subway": null, "tactile_paving": null, "toilets:wheelchair": null, "train": null, "wheelchair": "yes", "wikidata": "Q4761932", "wikipedia": "en:Angamaly railway station" }, "geometry": { "type": "Point", "coordinates": [ 76.3780765, 10.1837793 ] } }
]
}
